CCSDS_OMM_VERS = 2.0
CREATION_DATE  = 
ORIGINATOR     = 

OBJECT_NAME    = STARLINK-37068
OBJECT_ID      = 2026-042S
CENTER_NAME    = EARTH
REF_FRAME      = TEME
TIME_SYSTEM    = UTC
MEAN_ELEMENT_THEORY = SGP/SGP4

EPOCH          = 2026-03-17T22:00:03.000096
MEAN_MOTION    = 15.80889750
ECCENTRICITY   = .00008529
INCLINATION    = 53.1614
RA_OF_ASC_NODE = 153.4073
ARG_OF_PERICENTER = 105.7536
MEAN_ANOMALY   = 333.7729

EPHEMERIS_TYPE = 0
CLASSIFICATION_TYPE = U
NORAD_CAT_ID   = 68085
ELEMENT_SET_NO = 999
REV_AT_EPOCH   = 337
BSTAR          = -.27694694E-3
MEAN_MOTION_DOT = -.55052E-3
MEAN_MOTION_DDOT = 0

CCSDS_OMM_VERS = 2.0
CREATION_DATE  = 
ORIGINATOR     = 

OBJECT_NAME    = STARLINK-37067
OBJECT_ID      = 2026-042T
CENTER_NAME    = EARTH
REF_FRAME      = TEME
TIME_SYSTEM    = UTC
MEAN_ELEMENT_THEORY = SGP/SGP4

EPOCH          = 2026-03-17T22:00:03.000096
MEAN_MOTION    = 15.81047457
ECCENTRICITY   = .00010483
INCLINATION    = 53.1614
RA_OF_ASC_NODE = 153.3985
ARG_OF_PERICENTER = 88.3004
MEAN_ANOMALY   = 355.4960

EPHEMERIS_TYPE = 0
CLASSIFICATION_TYPE = U
NORAD_CAT_ID   = 68086
ELEMENT_SET_NO = 999
REV_AT_EPOCH   = 337
BSTAR          = -.18748764E-2
MEAN_MOTION_DOT = -.358684E-2
MEAN_MOTION_DDOT = 0

CCSDS_OMM_VERS = 2.0
CREATION_DATE  = 
ORIGINATOR     = 

OBJECT_NAME    = STARLINK-37062
OBJECT_ID      = 2026-042U
CENTER_NAME    = EARTH
REF_FRAME      = TEME
TIME_SYSTEM    = UTC
MEAN_ELEMENT_THEORY = SGP/SGP4

EPOCH          = 2026-03-17T22:00:03.000096
MEAN_MOTION    = 15.80883021
ECCENTRICITY   = .00017411
INCLINATION    = 53.1614
RA_OF_ASC_NODE = 153.3895
ARG_OF_PERICENTER = 91.4339
MEAN_ANOMALY   = 356.6166

EPHEMERIS_TYPE = 0
CLASSIFICATION_TYPE = U
NORAD_CAT_ID   = 68087
ELEMENT_SET_NO = 999
REV_AT_EPOCH   = 337
BSTAR          = -.16942265E-3
MEAN_MOTION_DOT = -.34025E-3
MEAN_MOTION_DDOT = 0

CCSDS_OMM_VERS = 2.0
CREATION_DATE  = 
ORIGINATOR     = 

OBJECT_NAME    = STARLINK-37059
OBJECT_ID      = 2026-042V
CENTER_NAME    = EARTH
REF_FRAME      = TEME
TIME_SYSTEM    = UTC
MEAN_ELEMENT_THEORY = SGP/SGP4

EPOCH          = 2026-03-17T22:00:03.000096
MEAN_MOTION    = 15.80881185
ECCENTRICITY   = .00011267
INCLINATION    = 53.1613
RA_OF_ASC_NODE = 153.3808
ARG_OF_PERICENTER = 83.7445
MEAN_ANOMALY   = 8.5959

EPHEMERIS_TYPE = 0
CLASSIFICATION_TYPE = U
NORAD_CAT_ID   = 68088
ELEMENT_SET_NO = 999
REV_AT_EPOCH   = 337
BSTAR          = -.19291182E-3
MEAN_MOTION_DOT = -.38618E-3
MEAN_MOTION_DDOT = 0

CCSDS_OMM_VERS = 2.0
CREATION_DATE  = 
ORIGINATOR     = 

OBJECT_NAME    = STARLINK-37004
OBJECT_ID      = 2026-042W
CENTER_NAME    = EARTH
REF_FRAME      = TEME
TIME_SYSTEM    = UTC
MEAN_ELEMENT_THEORY = SGP/SGP4

EPOCH          = 2026-03-17T22:00:03.000096
MEAN_MOTION    = 15.80887835
ECCENTRICITY   = .0001086
INCLINATION    = 53.1614
RA_OF_ASC_NODE = 153.3721
ARG_OF_PERICENTER = 107.4449
MEAN_ANOMALY   = 349.1530

EPHEMERIS_TYPE = 0
CLASSIFICATION_TYPE = U
NORAD_CAT_ID   = 68089
ELEMENT_SET_NO = 999
REV_AT_EPOCH   = 337
BSTAR          = -.15994445E-3
MEAN_MOTION_DOT = -.32171E-3
MEAN_MOTION_DDOT = 0

CCSDS_OMM_VERS = 2.0
CREATION_DATE  = 
ORIGINATOR     = 

OBJECT_NAME    = STARLINK-36320
OBJECT_ID      = 2026-042X
CENTER_NAME    = EARTH
REF_FRAME      = TEME
TIME_SYSTEM    = UTC
MEAN_ELEMENT_THEORY = SGP/SGP4

EPOCH          = 2026-03-17T22:00:03.000096
MEAN_MOTION    = 15.80880751
ECCENTRICITY   = .00010522
INCLINATION    = 53.1613
RA_OF_ASC_NODE = 153.3544
ARG_OF_PERICENTER = 105.8286
MEAN_ANOMALY   = 359.3083

EPHEMERIS_TYPE = 0
CLASSIFICATION_TYPE = U
NORAD_CAT_ID   = 68090
ELEMENT_SET_NO = 999
REV_AT_EPOCH   = 336
BSTAR          = -.85409299E-4
MEAN_MOTION_DOT = -.17527E-3
MEAN_MOTION_DDOT = 0

CCSDS_OMM_VERS = 2.0
CREATION_DATE  = 
ORIGINATOR     = 

OBJECT_NAME    = STARLINK-36324
OBJECT_ID      = 2026-042Y
CENTER_NAME    = EARTH
REF_FRAME      = TEME
TIME_SYSTEM    = UTC
MEAN_ELEMENT_THEORY = SGP/SGP4

EPOCH          = 2026-03-17T22:00:03.000096
MEAN_MOTION    = 15.81209420
ECCENTRICITY   = .00013322
INCLINATION    = 53.1591
RA_OF_ASC_NODE = 153.3629
ARG_OF_PERICENTER = 91.2632
MEAN_ANOMALY   = 9.5502

EPHEMERIS_TYPE = 0
CLASSIFICATION_TYPE = U
NORAD_CAT_ID   = 68091
ELEMENT_SET_NO = 999
REV_AT_EPOCH   = 336
BSTAR          = -.5254726E-2
MEAN_MOTION_DOT = -.945521E-2
MEAN_MOTION_DDOT = 0

CCSDS_OMM_VERS = 2.0
CREATION_DATE  = 
ORIGINATOR     = 

OBJECT_NAME    = STARLINK-36896
OBJECT_ID      = 2026-042Z
CENTER_NAME    = EARTH
REF_FRAME      = TEME
TIME_SYSTEM    = UTC
MEAN_ELEMENT_THEORY = SGP/SGP4

EPOCH          = 2026-03-17T22:00:03.000096
MEAN_MOTION    = 15.80909001
ECCENTRICITY   = .00013149
INCLINATION    = 53.1591
RA_OF_ASC_NODE = 153.3449
ARG_OF_PERICENTER = 96.8600
MEAN_ANOMALY   = 12.5400

EPHEMERIS_TYPE = 0
CLASSIFICATION_TYPE = U
NORAD_CAT_ID   = 68092
ELEMENT_SET_NO = 999
REV_AT_EPOCH   = 337
BSTAR          = -.3200513E-3
MEAN_MOTION_DOT = -.63511E-3
MEAN_MOTION_DDOT = 0

CCSDS_OMM_VERS = 2.0
CREATION_DATE  = 
ORIGINATOR     = 

OBJECT_NAME    = STARLINK-36251
OBJECT_ID      = 2026-042AA
CENTER_NAME    = EARTH
REF_FRAME      = TEME
TIME_SYSTEM    = UTC
MEAN_ELEMENT_THEORY = SGP/SGP4

EPOCH          = 2026-03-17T22:00:03.000096
MEAN_MOTION    = 15.80822062
ECCENTRICITY   = .00012653
INCLINATION    = 53.1594
RA_OF_ASC_NODE = 153.3271
ARG_OF_PERICENTER = 89.9736
MEAN_ANOMALY   = 28.0339

EPHEMERIS_TYPE = 0
CLASSIFICATION_TYPE = U
NORAD_CAT_ID   = 68093
ELEMENT_SET_NO = 999
REV_AT_EPOCH   = 336
BSTAR          = .35908118E-3
MEAN_MOTION_DOT = .70586E-3
MEAN_MOTION_DDOT = 0

CCSDS_OMM_VERS = 2.0
CREATION_DATE  = 
ORIGINATOR     = 

OBJECT_NAME    = STARLINK-36787
OBJECT_ID      = 2026-042AB
CENTER_NAME    = EARTH
REF_FRAME      = TEME
TIME_SYSTEM    = UTC
MEAN_ELEMENT_THEORY = SGP/SGP4

EPOCH          = 2026-03-17T22:00:03.000096
MEAN_MOTION    = 15.81205588
ECCENTRICITY   = .000132
INCLINATION    = 53.1592
RA_OF_ASC_NODE = 153.3093
ARG_OF_PERICENTER = 80.9008
MEAN_ANOMALY   = 45.5418

EPHEMERIS_TYPE = 0
CLASSIFICATION_TYPE = U
NORAD_CAT_ID   = 68094
ELEMENT_SET_NO = 999
REV_AT_EPOCH   = 336
BSTAR          = -.51083708E-2
MEAN_MOTION_DOT = -.92165E-2
MEAN_MOTION_DDOT = 0

CCSDS_OMM_VERS = 2.0
CREATION_DATE  = 
ORIGINATOR     = 

OBJECT_NAME    = STARLINK-36790
OBJECT_ID      = 2026-042AC
CENTER_NAME    = EARTH
REF_FRAME      = TEME
TIME_SYSTEM    = UTC
MEAN_ELEMENT_THEORY = SGP/SGP4

EPOCH          = 2026-03-17T22:00:03.000096
MEAN_MOTION    = 15.80876019
ECCENTRICITY   = .00008757
INCLINATION    = 53.1593
RA_OF_ASC_NODE = 153.3358
ARG_OF_PERICENTER = 90.9721
MEAN_ANOMALY   = 22.7113

EPHEMERIS_TYPE = 0
CLASSIFICATION_TYPE = U
NORAD_CAT_ID   = 68095
ELEMENT_SET_NO = 999
REV_AT_EPOCH   = 336
BSTAR          = .11483273E-4
MEAN_MOTION_DOT = .1569E-4
MEAN_MOTION_DDOT = 0

CCSDS_OMM_VERS = 2.0
CREATION_DATE  = 
ORIGINATOR     = 

OBJECT_NAME    = STARLINK-36328
OBJECT_ID      = 2026-042AD
CENTER_NAME    = EARTH
REF_FRAME      = TEME
TIME_SYSTEM    = UTC
MEAN_ELEMENT_THEORY = SGP/SGP4

EPOCH          = 2026-03-17T22:00:03.000096
MEAN_MOTION    = 15.80871160
ECCENTRICITY   = .00014964
INCLINATION    = 53.1592
RA_OF_ASC_NODE = 153.3002
ARG_OF_PERICENTER = 81.2827
MEAN_ANOMALY   = 49.4913

EPHEMERIS_TYPE = 0
CLASSIFICATION_TYPE = U
NORAD_CAT_ID   = 68096
ELEMENT_SET_NO = 999
REV_AT_EPOCH   = 336
BSTAR          = .11689488E-3
MEAN_MOTION_DOT = .2243E-3
MEAN_MOTION_DDOT = 0

