STARLINK-37068          
1 68085U 26042S   26076.91670139 -.00055052  00000+0 -27695-3 0  9998
2 68085  53.1614 153.4073 0000852 105.7536 333.7729 15.80889750  3372
STARLINK-37067          
1 68086U 26042T   26076.91670139 -.00358684  00000+0 -18749-2 0  9995
2 68086  53.1614 153.3985 0001048  88.3004 355.4960 15.81047457  3377
STARLINK-37062          
1 68087U 26042U   26076.91670139 -.00034025  00000+0 -16942-3 0  9990
2 68087  53.1614 153.3895 0001741  91.4339 356.6166 15.80883021  3379
STARLINK-37059          
1 68088U 26042V   26076.91670139 -.00038618  00000+0 -19291-3 0  9993
2 68088  53.1613 153.3808 0001126  83.7445   8.5959 15.80881185  3374
STARLINK-37004          
1 68089U 26042W   26076.91670139 -.00032171  00000+0 -15994-3 0  9998
2 68089  53.1614 153.3721 0001086 107.4449 349.1530 15.80887835  3370
STARLINK-36320          
1 68090U 26042X   26076.91670139 -.00017527  00000+0 -85409-4 0  9997
2 68090  53.1613 153.3544 0001052 105.8286 359.3083 15.80880751  3363
STARLINK-36324          
1 68091U 26042Y   26076.91670139 -.00945521  00000+0 -52547-2 0  9997
2 68091  53.1591 153.3629 0001332  91.2632   9.5502 15.81209420  3366
STARLINK-36896          
1 68092U 26042Z   26076.91670139 -.00063511  00000+0 -32005-3 0  9996
2 68092  53.1591 153.3449 0001314  96.8600  12.5400 15.80909001  3376
STARLINK-36251          
1 68093U 26042AA  26076.91670139  .00070586  00000+0  35908-3 0  9990
2 68093  53.1594 153.3271 0001265  89.9736  28.0339 15.80822062  3364
STARLINK-36787          
1 68094U 26042AB  26076.91670139 -.00921650  00000+0 -51084-2 0  9992
2 68094  53.1592 153.3093 0001320  80.9008  45.5418 15.81205588  3361
STARLINK-36790          
1 68095U 26042AC  26076.91670139  .00001569  00000+0  11483-4 0  9990
2 68095  53.1593 153.3358 0000875  90.9721  22.7113 15.80876019  3365
STARLINK-36328          
1 68096U 26042AD  26076.91670139  .00022430  00000+0  11689-3 0  9998
2 68096  53.1592 153.3002 0001496  81.2827  49.4913 15.80871160  3367
